{"fetched_at":"2026-03-29T02:12:04Z","count":15717,"tles":[{"name":"STARLINK-30875","line1":"1 58224U 23170U   26087.46788406  .00001258  00000+0  55234-4 0  9998","line2":"2 58224  43.0039  87.9609 0002017 266.7874  93.2747 15.27578980133170","category":"Starlink"}]}