{
  "norad_id": 58224,
  "name": "STARLINK-30875",
  "history": [
    {
      "epoch": "2026-03-28T11:13:45.182784Z",
      "apogee_km": 484.4360521399085,
      "perigee_km": 481.668248436682,
      "latitude_deg": 6.5940041910724446e-06,
      "longitude_deg": 93.63474210000625,
      "height_km": 482.9073131502798,
      "semi_major_axis_km": 6861.1891502882945,
      "eccentricity": 0.0002017,
      "inclination_deg": 43.0039,
      "raan_deg": 87.9609,
      "arg_perigee_deg": 266.7874,
      "mean_anomaly_deg": 93.2747,
      "mean_motion_rev_day": 15.2757898
    }
  ]
}